{"fetched_at":"2026-03-30T13:17:50Z","count":15418,"tles":[{"name":"STARLINK-3391","line1":"1 51117U 22005P   26087.79824840  .00000465  00000+0  47297-4 0  9996","line2":"2 51117  53.2186 203.2255 0001028  89.7507 270.3603 15.08844921231760","category":"Starlink"}]}